CCSDS_OMM_VERS = 2.0
CREATION_DATE  = 
ORIGINATOR     = 

OBJECT_NAME    = HTV-X1
OBJECT_ID      = 2025-241A
CENTER_NAME    = EARTH
REF_FRAME      = TEME
TIME_SYSTEM    = UTC
MEAN_ELEMENT_THEORY = SGP/SGP4

EPOCH          = 2026-03-26T20:47:18.002976
MEAN_MOTION    = 15.32418754
ECCENTRICITY   = .0007384
INCLINATION    = 51.6382
RA_OF_ASC_NODE = 350.3080
ARG_OF_PERICENTER = 237.8228
MEAN_ANOMALY   = 122.2038

EPHEMERIS_TYPE = 0
CLASSIFICATION_TYPE = U
NORAD_CAT_ID   = 66174
ELEMENT_SET_NO = 999
REV_AT_EPOCH   = 2357
BSTAR          = .93237E-4
MEAN_MOTION_DOT = .2593E-4
MEAN_MOTION_DDOT = 0

CCSDS_OMM_VERS = 2.0
CREATION_DATE  = 
ORIGINATOR     = 

OBJECT_NAME    = SZ-21 MODULE
OBJECT_ID      = 2025-246C
CENTER_NAME    = EARTH
REF_FRAME      = TEME
TIME_SYSTEM    = UTC
MEAN_ELEMENT_THEORY = SGP/SGP4

EPOCH          = 2026-03-26T10:18:41.505984
MEAN_MOTION    = 15.69816747
ECCENTRICITY   = .0001204
INCLINATION    = 41.4744
RA_OF_ASC_NODE = 100.2120
ARG_OF_PERICENTER = 208.6321
MEAN_ANOMALY   = 151.4455

EPHEMERIS_TYPE = 0
CLASSIFICATION_TYPE = U
NORAD_CAT_ID   = 66515
ELEMENT_SET_NO = 999
REV_AT_EPOCH   = 2070
BSTAR          = .29374E-3
MEAN_MOTION_DOT = .35932E-3
MEAN_MOTION_DDOT = 0

CCSDS_OMM_VERS = 2.0
CREATION_DATE  = 
ORIGINATOR     = 

OBJECT_NAME    = SHENZHOU-22
OBJECT_ID      = 2025-272A
CENTER_NAME    = EARTH
REF_FRAME      = TEME
TIME_SYSTEM    = UTC
MEAN_ELEMENT_THEORY = SGP/SGP4

EPOCH          = 2026-03-26T11:26:24.884160
MEAN_MOTION    = 15.61516360
ECCENTRICITY   = .0004375
INCLINATION    = 41.4668
RA_OF_ASC_NODE = 105.9518
ARG_OF_PERICENTER = 27.8564
MEAN_ANOMALY   = 332.2509

EPHEMERIS_TYPE = 0
CLASSIFICATION_TYPE = U
NORAD_CAT_ID   = 66645
ELEMENT_SET_NO = 999
REV_AT_EPOCH   = 28034
BSTAR          = .25348E-3
MEAN_MOTION_DOT = .22078E-3
MEAN_MOTION_DDOT = 0

CCSDS_OMM_VERS = 2.0
CREATION_DATE  = 
ORIGINATOR     = 

OBJECT_NAME    = SOYUZ-MS 28
OBJECT_ID      = 2025-275A
CENTER_NAME    = EARTH
REF_FRAME      = TEME
TIME_SYSTEM    = UTC
MEAN_ELEMENT_THEORY = SGP/SGP4

EPOCH          = 2026-03-26T19:25:42.681792
MEAN_MOTION    = 15.48566257
ECCENTRICITY   = .0006206
INCLINATION    = 51.6341
RA_OF_ASC_NODE = 347.7277
ARG_OF_PERICENTER = 236.0994
MEAN_ANOMALY   = 123.9405

EPHEMERIS_TYPE = 0
CLASSIFICATION_TYPE = U
NORAD_CAT_ID   = 66664
ELEMENT_SET_NO = 999
REV_AT_EPOCH   = 55904
BSTAR          = .24531E-3
MEAN_MOTION_DOT = .1289E-3
MEAN_MOTION_DDOT = 0

CCSDS_OMM_VERS = 2.0
CREATION_DATE  = 
ORIGINATOR     = 

OBJECT_NAME    = DUPLEX
OBJECT_ID      = 1998-067XS
CENTER_NAME    = EARTH
REF_FRAME      = TEME
TIME_SYSTEM    = UTC
MEAN_ELEMENT_THEORY = SGP/SGP4

EPOCH          = 2026-03-26T22:02:18.782016
MEAN_MOTION    = 15.57320061
ECCENTRICITY   = .0003272
INCLINATION    = 51.6308
RA_OF_ASC_NODE = 343.2057
ARG_OF_PERICENTER = 185.8380
MEAN_ANOMALY   = 174.2575

EPHEMERIS_TYPE = 0
CLASSIFICATION_TYPE = U
NORAD_CAT_ID   = 66906
ELEMENT_SET_NO = 999
REV_AT_EPOCH   = 1781
BSTAR          = .57582E-3
MEAN_MOTION_DOT = .42625E-3
MEAN_MOTION_DDOT = 0

CCSDS_OMM_VERS = 2.0
CREATION_DATE  = 
ORIGINATOR     = 

OBJECT_NAME    = ISS OBJECT XT
OBJECT_ID      = 1998-067XT
CENTER_NAME    = EARTH
REF_FRAME      = TEME
TIME_SYSTEM    = UTC
MEAN_ELEMENT_THEORY = SGP/SGP4

EPOCH          = 2026-03-26T20:55:05.140992
MEAN_MOTION    = 15.75467678
ECCENTRICITY   = .0005675
INCLINATION    = 51.6252
RA_OF_ASC_NODE = 337.6103
ARG_OF_PERICENTER = 191.1501
MEAN_ANOMALY   = 168.9373

EPHEMERIS_TYPE = 0
CLASSIFICATION_TYPE = U
NORAD_CAT_ID   = 66907
ELEMENT_SET_NO = 999
REV_AT_EPOCH   = 1788
BSTAR          = .13542E-2
MEAN_MOTION_DOT = .214941E-2
MEAN_MOTION_DDOT = 0

CCSDS_OMM_VERS = 2.0
CREATION_DATE  = 
ORIGINATOR     = 

OBJECT_NAME    = ISS OBJECT XU
OBJECT_ID      = 1998-067XU
CENTER_NAME    = EARTH
REF_FRAME      = TEME
TIME_SYSTEM    = UTC
MEAN_ELEMENT_THEORY = SGP/SGP4

EPOCH          = 2026-03-26T20:50:03.785568
MEAN_MOTION    = 15.75695839
ECCENTRICITY   = .0005863
INCLINATION    = 51.6239
RA_OF_ASC_NODE = 337.5828
ARG_OF_PERICENTER = 190.7833
MEAN_ANOMALY   = 169.3042

EPHEMERIS_TYPE = 0
CLASSIFICATION_TYPE = U
NORAD_CAT_ID   = 66908
ELEMENT_SET_NO = 999
REV_AT_EPOCH   = 1788
BSTAR          = .13933E-2
MEAN_MOTION_DOT = .223623E-2
MEAN_MOTION_DDOT = 0

CCSDS_OMM_VERS = 2.0
CREATION_DATE  = 
ORIGINATOR     = 

OBJECT_NAME    = SILVERSAT
OBJECT_ID      = 1998-067XV
CENTER_NAME    = EARTH
REF_FRAME      = TEME
TIME_SYSTEM    = UTC
MEAN_ELEMENT_THEORY = SGP/SGP4

EPOCH          = 2026-03-26T21:23:40.720992
MEAN_MOTION    = 15.80614187
ECCENTRICITY   = .0006697
INCLINATION    = 51.6221
RA_OF_ASC_NODE = 336.2271
ARG_OF_PERICENTER = 196.8571
MEAN_ANOMALY   = 163.2209

EPHEMERIS_TYPE = 0
CLASSIFICATION_TYPE = U
NORAD_CAT_ID   = 66909
ELEMENT_SET_NO = 999
REV_AT_EPOCH   = 1790
BSTAR          = .15341E-2
MEAN_MOTION_DOT = .310372E-2
MEAN_MOTION_DDOT = 0

CCSDS_OMM_VERS = 2.0
CREATION_DATE  = 
ORIGINATOR     = 

OBJECT_NAME    = ISS OBJECT XW
OBJECT_ID      = 1998-067XW
CENTER_NAME    = EARTH
REF_FRAME      = TEME
TIME_SYSTEM    = UTC
MEAN_ELEMENT_THEORY = SGP/SGP4

EPOCH          = 2026-03-26T21:02:51.073728
MEAN_MOTION    = 15.74127542
ECCENTRICITY   = .0006051
INCLINATION    = 51.6241
RA_OF_ASC_NODE = 337.6390
ARG_OF_PERICENTER = 189.0578
MEAN_ANOMALY   = 171.0313

EPHEMERIS_TYPE = 0
CLASSIFICATION_TYPE = U
NORAD_CAT_ID   = 66910
ELEMENT_SET_NO = 999
REV_AT_EPOCH   = 1788
BSTAR          = .1218E-2
MEAN_MOTION_DOT = .181611E-2
MEAN_MOTION_DDOT = 0

CCSDS_OMM_VERS = 2.0
CREATION_DATE  = 
ORIGINATOR     = 

OBJECT_NAME    = ISS OBJECT XX
OBJECT_ID      = 1998-067XX
CENTER_NAME    = EARTH
REF_FRAME      = TEME
TIME_SYSTEM    = UTC
MEAN_ELEMENT_THEORY = SGP/SGP4

EPOCH          = 2026-03-26T21:41:28.850496
MEAN_MOTION    = 15.86694051
ECCENTRICITY   = .000835
INCLINATION    = 51.6193
RA_OF_ASC_NODE = 334.7764
ARG_OF_PERICENTER = 200.4207
MEAN_ANOMALY   = 159.6465

EPHEMERIS_TYPE = 0
CLASSIFICATION_TYPE = U
NORAD_CAT_ID   = 66911
ELEMENT_SET_NO = 999
REV_AT_EPOCH   = 1791
BSTAR          = .17194E-2
MEAN_MOTION_DOT = .473211E-2
MEAN_MOTION_DDOT = 0

CCSDS_OMM_VERS = 2.0
CREATION_DATE  = 
ORIGINATOR     = 

OBJECT_NAME    = ISS OBJECT XY
OBJECT_ID      = 1998-067XY
CENTER_NAME    = EARTH
REF_FRAME      = TEME
TIME_SYSTEM    = UTC
MEAN_ELEMENT_THEORY = SGP/SGP4

EPOCH          = 2026-03-26T21:10:08.088384
MEAN_MOTION    = 15.67153552
ECCENTRICITY   = .000413
INCLINATION    = 51.6272
RA_OF_ASC_NODE = 339.9521
ARG_OF_PERICENTER = 188.6075
MEAN_ANOMALY   = 171.4851

EPHEMERIS_TYPE = 0
CLASSIFICATION_TYPE = U
NORAD_CAT_ID   = 66912
ELEMENT_SET_NO = 999
REV_AT_EPOCH   = 1784
BSTAR          = .99497E-3
MEAN_MOTION_DOT = .109627E-2
MEAN_MOTION_DDOT = 0

CCSDS_OMM_VERS = 2.0
CREATION_DATE  = 
ORIGINATOR     = 

OBJECT_NAME    = KNACKSAT-2
OBJECT_ID      = 1998-067XZ
CENTER_NAME    = EARTH
REF_FRAME      = TEME
TIME_SYSTEM    = UTC
MEAN_ELEMENT_THEORY = SGP/SGP4

EPOCH          = 2026-03-26T21:55:55.955712
MEAN_MOTION    = 15.53240064
ECCENTRICITY   = .0009922
INCLINATION    = 51.6325
RA_OF_ASC_NODE = 346.1761
ARG_OF_PERICENTER = 248.3219
MEAN_ANOMALY   = 111.6715

EPHEMERIS_TYPE = 0
CLASSIFICATION_TYPE = U
NORAD_CAT_ID   = 67683
ELEMENT_SET_NO = 999
REV_AT_EPOCH   = 746
BSTAR          = .64594E-3
MEAN_MOTION_DOT = .41216E-3
MEAN_MOTION_DDOT = 0

