HTV-X1                  
1 66174U 25241A   26085.86618059  .00002593  00000+0  93237-4 0  9998
2 66174  51.6382 350.3080 0007384 237.8228 122.2038 15.32418754 23579
SZ-21 MODULE            
1 66515U 25246C   26085.42964706  .00035932  00000+0  29374-3 0  9990
2 66515  41.4744 100.2120 0001204 208.6321 151.4455 15.69816747 20702
SHENZHOU-22             
1 66645U 25272A   26085.47667690  .00022078  00000+0  25348-3 0  9994
2 66645  41.4668 105.9518 0004375  27.8564 332.2509 15.61516360280343
SOYUZ-MS 28             
1 66664U 25275A   26085.80952178  .00012890  00000+0  24531-3 0  9997
2 66664  51.6341 347.7277 0006206 236.0994 123.9405 15.48566257559040
DUPLEX                  
1 66906U 98067XS  26085.91827294  .00042625  00000+0  57582-3 0  9998
2 66906  51.6308 343.2057 0003272 185.8380 174.2575 15.57320061 17811
ISS OBJECT XT           
1 66907U 98067XT  26085.87158728  .00214941  00000+0  13542-2 0  9992
2 66907  51.6252 337.6103 0005675 191.1501 168.9373 15.75467678 17882
ISS OBJECT XU           
1 66908U 98067XU  26085.86809937  .00223623  00000+0  13933-2 0  9998
2 66908  51.6239 337.5828 0005863 190.7833 169.3042 15.75695839 17883
SILVERSAT               
1 66909U 98067XV  26085.89144353  .00310372  00000+0  15341-2 0  9999
2 66909  51.6221 336.2271 0006697 196.8571 163.2209 15.80614187 17909
ISS OBJECT XW           
1 66910U 98067XW  26085.87698002  .00181611  00000+0  12180-2 0  9994
2 66910  51.6241 337.6390 0006051 189.0578 171.0313 15.74127542 17882
ISS OBJECT XX           
1 66911U 98067XX  26085.90380614  .00473211  00000+0  17194-2 0  9996
2 66911  51.6193 334.7764 0008350 200.4207 159.6465 15.86694051 17914
ISS OBJECT XY           
1 66912U 98067XY  26085.88203806  .00109627  00000+0  99497-3 0  9995
2 66912  51.6272 339.9521 0004130 188.6075 171.4851 15.67153552 17841
KNACKSAT-2              
1 67683U 98067XZ  26085.91384208  .00041216  00000+0  64594-3 0  9990
2 67683  51.6325 346.1761 0009922 248.3219 111.6715 15.53240064  7462
